STARLINK-36405          
1 67921U 26036T   26071.16668981 -.01977240  00000+0 -19465-1 0  9990
2 67921  42.9991 234.6515 0001794 269.1017  39.3616 15.68226480  4042
STARLINK-36383          
1 67922U 26036U   26070.84489259  .00259897  00000+0  11949-2 0  9992
2 67922  42.9983 236.4086 0002108 271.4813  88.5817 15.82108084  4018
STARLINK-36406          
1 67923U 26036V   26071.16668981 -.01976854  00000+0 -23334-1 0  9992
2 67923  42.9995 234.7829 0001632 267.2218 348.1368 15.63769761  4044
STARLINK-36714          
1 67924U 26036W   26071.16060583  .00179661  00000+0  10037-2 0  9992
2 67924  42.9987 234.4742 0006268  41.7115 318.4232 15.78056210  4064
STARLINK-36726          
1 67925U 26036X   26070.91855742 -.01424565  00000+0 -13271-1 0  9995
2 67925  42.9968 236.1082 0002950 304.0458  56.0129 15.69525214  4020
STARLINK-36758          
1 67926U 26036Y   26071.16668981 -.01943731  00000+0 -14628-1 0  9999
2 67926  42.9993 234.4453 0001753 277.7732 112.8955 15.74995972  4041
STARLINK-36728          
1 67927U 26036Z   26071.16668981 -.01948672  00000+0 -12575-1 0  9998
2 67927  42.9995 234.3843 0001511 277.7899 137.1983 15.78426156  4040
STARLINK-36771          
1 67928U 26036AA  26070.90403917  .00620167  00000+0  26187-2 0  9994
2 67928  42.9983 235.9872 0015643 305.0311  54.9092 15.82871260  4022
STARLINK-36809          
1 67929U 26036AB  26071.15748255  .00189951  00000+0  11005-2 0  9994
2 67929  42.9994 234.4475 0005623  38.9428 321.1846 15.77216004  4069
STARLINK-36865          
1 67930U 26036AC  26070.90128626  .00307168  00000+0  14033-2 0  9998
2 67930  42.9989 235.9642 0001705 284.8141  75.2541 15.82119378  4025
STARLINK-36781          
1 67931U 26036AD  26070.90204021  .00174753  00000+0  81424-3 0  9994
2 67931  42.9990 235.9718 0001984 261.7679  98.2968 15.82056264  4023
STARLINK-36301          
1 67932U 26037A   26071.00002314  .00073189  00000+0  34748-3 0  9997
2 67932  42.9983 184.4193 0001695 270.7419 214.8549 15.81996625  3485
