CCSDS_OMM_VERS = 2.0
CREATION_DATE  = 
ORIGINATOR     = 

OBJECT_NAME    = STARLINK-36405
OBJECT_ID      = 2026-036T
CENTER_NAME    = EARTH
REF_FRAME      = TEME
TIME_SYSTEM    = UTC
MEAN_ELEMENT_THEORY = SGP/SGP4

EPOCH          = 2026-03-12T04:00:01.999584
MEAN_MOTION    = 15.68226480
ECCENTRICITY   = .0001794
INCLINATION    = 42.9991
RA_OF_ASC_NODE = 234.6515
ARG_OF_PERICENTER = 269.1017
MEAN_ANOMALY   = 39.3616

EPHEMERIS_TYPE = 0
CLASSIFICATION_TYPE = U
NORAD_CAT_ID   = 67921
ELEMENT_SET_NO = 999
REV_AT_EPOCH   = 404
BSTAR          = -.19465E-1
MEAN_MOTION_DOT = -.197724E-1
MEAN_MOTION_DDOT = 0

CCSDS_OMM_VERS = 2.0
CREATION_DATE  = 
ORIGINATOR     = 

OBJECT_NAME    = STARLINK-36383
OBJECT_ID      = 2026-036U
CENTER_NAME    = EARTH
REF_FRAME      = TEME
TIME_SYSTEM    = UTC
MEAN_ELEMENT_THEORY = SGP/SGP4

EPOCH          = 2026-03-11T20:16:38.719776
MEAN_MOTION    = 15.82108084
ECCENTRICITY   = .0002108
INCLINATION    = 42.9983
RA_OF_ASC_NODE = 236.4086
ARG_OF_PERICENTER = 271.4813
MEAN_ANOMALY   = 88.5817

EPHEMERIS_TYPE = 0
CLASSIFICATION_TYPE = U
NORAD_CAT_ID   = 67922
ELEMENT_SET_NO = 999
REV_AT_EPOCH   = 401
BSTAR          = .11949E-2
MEAN_MOTION_DOT = .259897E-2
MEAN_MOTION_DDOT = 0

CCSDS_OMM_VERS = 2.0
CREATION_DATE  = 
ORIGINATOR     = 

OBJECT_NAME    = STARLINK-36406
OBJECT_ID      = 2026-036V
CENTER_NAME    = EARTH
REF_FRAME      = TEME
TIME_SYSTEM    = UTC
MEAN_ELEMENT_THEORY = SGP/SGP4

EPOCH          = 2026-03-12T04:00:01.999584
MEAN_MOTION    = 15.63769761
ECCENTRICITY   = .0001632
INCLINATION    = 42.9995
RA_OF_ASC_NODE = 234.7829
ARG_OF_PERICENTER = 267.2218
MEAN_ANOMALY   = 348.1368

EPHEMERIS_TYPE = 0
CLASSIFICATION_TYPE = U
NORAD_CAT_ID   = 67923
ELEMENT_SET_NO = 999
REV_AT_EPOCH   = 404
BSTAR          = -.23334E-1
MEAN_MOTION_DOT = -.1976854E-1
MEAN_MOTION_DDOT = 0

CCSDS_OMM_VERS = 2.0
CREATION_DATE  = 
ORIGINATOR     = 

OBJECT_NAME    = STARLINK-36714
OBJECT_ID      = 2026-036W
CENTER_NAME    = EARTH
REF_FRAME      = TEME
TIME_SYSTEM    = UTC
MEAN_ELEMENT_THEORY = SGP/SGP4

EPOCH          = 2026-03-12T03:51:16.343712
MEAN_MOTION    = 15.78056210
ECCENTRICITY   = .0006268
INCLINATION    = 42.9987
RA_OF_ASC_NODE = 234.4742
ARG_OF_PERICENTER = 41.7115
MEAN_ANOMALY   = 318.4232

EPHEMERIS_TYPE = 0
CLASSIFICATION_TYPE = U
NORAD_CAT_ID   = 67924
ELEMENT_SET_NO = 999
REV_AT_EPOCH   = 406
BSTAR          = .10037E-2
MEAN_MOTION_DOT = .179661E-2
MEAN_MOTION_DDOT = 0

CCSDS_OMM_VERS = 2.0
CREATION_DATE  = 
ORIGINATOR     = 

OBJECT_NAME    = STARLINK-36726
OBJECT_ID      = 2026-036X
CENTER_NAME    = EARTH
REF_FRAME      = TEME
TIME_SYSTEM    = UTC
MEAN_ELEMENT_THEORY = SGP/SGP4

EPOCH          = 2026-03-11T22:02:43.361088
MEAN_MOTION    = 15.69525214
ECCENTRICITY   = .000295
INCLINATION    = 42.9968
RA_OF_ASC_NODE = 236.1082
ARG_OF_PERICENTER = 304.0458
MEAN_ANOMALY   = 56.0129

EPHEMERIS_TYPE = 0
CLASSIFICATION_TYPE = U
NORAD_CAT_ID   = 67925
ELEMENT_SET_NO = 999
REV_AT_EPOCH   = 402
BSTAR          = -.13271E-1
MEAN_MOTION_DOT = -.1424565E-1
MEAN_MOTION_DDOT = 0

CCSDS_OMM_VERS = 2.0
CREATION_DATE  = 
ORIGINATOR     = 

OBJECT_NAME    = STARLINK-36758
OBJECT_ID      = 2026-036Y
CENTER_NAME    = EARTH
REF_FRAME      = TEME
TIME_SYSTEM    = UTC
MEAN_ELEMENT_THEORY = SGP/SGP4

EPOCH          = 2026-03-12T04:00:01.999584
MEAN_MOTION    = 15.74995972
ECCENTRICITY   = .0001753
INCLINATION    = 42.9993
RA_OF_ASC_NODE = 234.4453
ARG_OF_PERICENTER = 277.7732
MEAN_ANOMALY   = 112.8955

EPHEMERIS_TYPE = 0
CLASSIFICATION_TYPE = U
NORAD_CAT_ID   = 67926
ELEMENT_SET_NO = 999
REV_AT_EPOCH   = 404
BSTAR          = -.14628E-1
MEAN_MOTION_DOT = -.1943731E-1
MEAN_MOTION_DDOT = 0

CCSDS_OMM_VERS = 2.0
CREATION_DATE  = 
ORIGINATOR     = 

OBJECT_NAME    = STARLINK-36728
OBJECT_ID      = 2026-036Z
CENTER_NAME    = EARTH
REF_FRAME      = TEME
TIME_SYSTEM    = UTC
MEAN_ELEMENT_THEORY = SGP/SGP4

EPOCH          = 2026-03-12T04:00:01.999584
MEAN_MOTION    = 15.78426156
ECCENTRICITY   = .0001511
INCLINATION    = 42.9995
RA_OF_ASC_NODE = 234.3843
ARG_OF_PERICENTER = 277.7899
MEAN_ANOMALY   = 137.1983

EPHEMERIS_TYPE = 0
CLASSIFICATION_TYPE = U
NORAD_CAT_ID   = 67927
ELEMENT_SET_NO = 999
REV_AT_EPOCH   = 404
BSTAR          = -.12575E-1
MEAN_MOTION_DOT = -.1948672E-1
MEAN_MOTION_DDOT = 0

CCSDS_OMM_VERS = 2.0
CREATION_DATE  = 
ORIGINATOR     = 

OBJECT_NAME    = STARLINK-36771
OBJECT_ID      = 2026-036AA
CENTER_NAME    = EARTH
REF_FRAME      = TEME
TIME_SYSTEM    = UTC
MEAN_ELEMENT_THEORY = SGP/SGP4

EPOCH          = 2026-03-11T21:41:48.984288
MEAN_MOTION    = 15.82871260
ECCENTRICITY   = .0015643
INCLINATION    = 42.9983
RA_OF_ASC_NODE = 235.9872
ARG_OF_PERICENTER = 305.0311
MEAN_ANOMALY   = 54.9092

EPHEMERIS_TYPE = 0
CLASSIFICATION_TYPE = U
NORAD_CAT_ID   = 67928
ELEMENT_SET_NO = 999
REV_AT_EPOCH   = 402
BSTAR          = .26187E-2
MEAN_MOTION_DOT = .620167E-2
MEAN_MOTION_DDOT = 0

CCSDS_OMM_VERS = 2.0
CREATION_DATE  = 
ORIGINATOR     = 

OBJECT_NAME    = STARLINK-36809
OBJECT_ID      = 2026-036AB
CENTER_NAME    = EARTH
REF_FRAME      = TEME
TIME_SYSTEM    = UTC
MEAN_ELEMENT_THEORY = SGP/SGP4

EPOCH          = 2026-03-12T03:46:46.492320
MEAN_MOTION    = 15.77216004
ECCENTRICITY   = .0005623
INCLINATION    = 42.9994
RA_OF_ASC_NODE = 234.4475
ARG_OF_PERICENTER = 38.9428
MEAN_ANOMALY   = 321.1846

EPHEMERIS_TYPE = 0
CLASSIFICATION_TYPE = U
NORAD_CAT_ID   = 67929
ELEMENT_SET_NO = 999
REV_AT_EPOCH   = 406
BSTAR          = .11005E-2
MEAN_MOTION_DOT = .189951E-2
MEAN_MOTION_DDOT = 0

CCSDS_OMM_VERS = 2.0
CREATION_DATE  = 
ORIGINATOR     = 

OBJECT_NAME    = STARLINK-36865
OBJECT_ID      = 2026-036AC
CENTER_NAME    = EARTH
REF_FRAME      = TEME
TIME_SYSTEM    = UTC
MEAN_ELEMENT_THEORY = SGP/SGP4

EPOCH          = 2026-03-11T21:37:51.132864
MEAN_MOTION    = 15.82119378
ECCENTRICITY   = .0001705
INCLINATION    = 42.9989
RA_OF_ASC_NODE = 235.9642
ARG_OF_PERICENTER = 284.8141
MEAN_ANOMALY   = 75.2541

EPHEMERIS_TYPE = 0
CLASSIFICATION_TYPE = U
NORAD_CAT_ID   = 67930
ELEMENT_SET_NO = 999
REV_AT_EPOCH   = 402
BSTAR          = .14033E-2
MEAN_MOTION_DOT = .307168E-2
MEAN_MOTION_DDOT = 0

CCSDS_OMM_VERS = 2.0
CREATION_DATE  = 
ORIGINATOR     = 

OBJECT_NAME    = STARLINK-36781
OBJECT_ID      = 2026-036AD
CENTER_NAME    = EARTH
REF_FRAME      = TEME
TIME_SYSTEM    = UTC
MEAN_ELEMENT_THEORY = SGP/SGP4

EPOCH          = 2026-03-11T21:38:56.274144
MEAN_MOTION    = 15.82056264
ECCENTRICITY   = .0001984
INCLINATION    = 42.9990
RA_OF_ASC_NODE = 235.9718
ARG_OF_PERICENTER = 261.7679
MEAN_ANOMALY   = 98.2968

EPHEMERIS_TYPE = 0
CLASSIFICATION_TYPE = U
NORAD_CAT_ID   = 67931
ELEMENT_SET_NO = 999
REV_AT_EPOCH   = 402
BSTAR          = .81424E-3
MEAN_MOTION_DOT = .174753E-2
MEAN_MOTION_DDOT = 0

CCSDS_OMM_VERS = 2.0
CREATION_DATE  = 
ORIGINATOR     = 

OBJECT_NAME    = STARLINK-36301
OBJECT_ID      = 2026-037A
CENTER_NAME    = EARTH
REF_FRAME      = TEME
TIME_SYSTEM    = UTC
MEAN_ELEMENT_THEORY = SGP/SGP4

EPOCH          = 2026-03-12T00:00:01.999296
MEAN_MOTION    = 15.81996625
ECCENTRICITY   = .0001695
INCLINATION    = 42.9983
RA_OF_ASC_NODE = 184.4193
ARG_OF_PERICENTER = 270.7419
MEAN_ANOMALY   = 214.8549

EPHEMERIS_TYPE = 0
CLASSIFICATION_TYPE = U
NORAD_CAT_ID   = 67932
ELEMENT_SET_NO = 999
REV_AT_EPOCH   = 348
BSTAR          = .34748E-3
MEAN_MOTION_DOT = .73189E-3
MEAN_MOTION_DDOT = 0

